[
  {
    "OBJECT_NAME": "STARLINK-1114",
    "OBJECT_ID": "20001P",
    "EPOCH": "2025-11-11T06:42:21.827520",
    "MEAN_MOTION": 15.06393189,
    "ECCENTRICITY": 0.0001178,
    "INCLINATION": 53.0521,
    "RA_OF_ASC_NODE": 158.1854,
    "ARG_OF_PERICENTER": 97.274,
    "MEAN_ANOMALY": 262.8383,
    "EPHEMERIS_TYPE": 0,
    "CLASSIFICATION_TYPE": "U",
    "NORAD_CAT_ID": 44927,
    "ELEMENT_SET_NO": 999,
    "REV_AT_EPOCH": 32200,
    "BSTAR": 0.00029081,
    "MEAN_MOTION_DOT": 4.052e-05,
    "MEAN_MOTION_DDOT": 0.0,
    "TLE_LINE1": "1 44927U 20001P   25315.27941930  .00004052  00000+0  29081-3 0  9993",
    "TLE_LINE2": "2 44927  53.0521 158.1854 0001178  97.2740 262.8383 15.06393189322006",
    "COMMENT": "Grouped by shell and plane from TLE"
  },
  {
    "OBJECT_NAME": "STARLINK-1972",
    "OBJECT_ID": "21012H",
    "EPOCH": "2025-11-10T19:45:30.845952",
    "MEAN_MOTION": 15.06401491,
    "ECCENTRICITY": 0.000135,
    "INCLINATION": 53.0535,
    "RA_OF_ASC_NODE": 150.2282,
    "ARG_OF_PERICENTER": 97.7167,
    "MEAN_ANOMALY": 262.3975,
    "EPHEMERIS_TYPE": 0,
    "CLASSIFICATION_TYPE": "U",
    "NORAD_CAT_ID": 47627,
    "ELEMENT_SET_NO": 999,
    "REV_AT_EPOCH": 26337,
    "BSTAR": 8.143700000000001e-05,
    "MEAN_MOTION_DOT": 9.32e-06,
    "MEAN_MOTION_DDOT": 0.0,
    "TLE_LINE1": "1 47627U 21012H   25314.82327368  .00000932  00000+0  81437-4 0  9996",
    "TLE_LINE2": "2 47627  53.0535 150.2282 0001350  97.7167 262.3975 15.06401491263371",
    "COMMENT": "Grouped by shell and plane from TLE"
  },
  {
    "OBJECT_NAME": "STARLINK-2606",
    "OBJECT_ID": "21038AK",
    "EPOCH": "2025-11-11T06:31:44.603328",
    "MEAN_MOTION": 15.06398057,
    "ECCENTRICITY": 0.0001488,
    "INCLINATION": 53.0527,
    "RA_OF_ASC_NODE": 158.2263,
    "ARG_OF_PERICENTER": 94.5568,
    "MEAN_ANOMALY": 265.5591,
    "EPHEMERIS_TYPE": 0,
    "CLASSIFICATION_TYPE": "U",
    "NORAD_CAT_ID": 48386,
    "ELEMENT_SET_NO": 999,
    "REV_AT_EPOCH": 24938,
    "BSTAR": 0.00014244000000000003,
    "MEAN_MOTION_DOT": 1.841e-05,
    "MEAN_MOTION_DDOT": 0.0,
    "TLE_LINE1": "1 48386U 21038AK  25315.27204402  .00001841  00000+0  14244-3 0  9991",
    "TLE_LINE2": "2 48386  53.0527 158.2263 0001488  94.5568 265.5591 15.06398057249381",
    "COMMENT": "Grouped by shell and plane from TLE"
  },
  {
    "OBJECT_NAME": "STARLINK-2594",
    "OBJECT_ID": "21038AM",
    "EPOCH": "2025-11-10T21:35:39.678720",
    "MEAN_MOTION": 15.06395801,
    "ECCENTRICITY": 0.0001635,
    "INCLINATION": 53.053,
    "RA_OF_ASC_NODE": 159.8892,
    "ARG_OF_PERICENTER": 96.3424,
    "MEAN_ANOMALY": 263.7751,
    "EPHEMERIS_TYPE": 0,
    "CLASSIFICATION_TYPE": "U",
    "NORAD_CAT_ID": 48388,
    "ELEMENT_SET_NO": 999,
    "REV_AT_EPOCH": 24933,
    "BSTAR": 0.00012106000000000001,
    "MEAN_MOTION_DOT": 1.522e-05,
    "MEAN_MOTION_DDOT": 0.0,
    "TLE_LINE1": "1 48388U 21038AM  25314.89976480  .00001522  00000+0  12106-3 0  9993",
    "TLE_LINE2": "2 48388  53.0530 159.8892 0001635  96.3424 263.7751 15.06395801249334",
    "COMMENT": "Grouped by shell and plane from TLE"
  },
  {
    "OBJECT_NAME": "STARLINK-2586",
    "OBJECT_ID": "21038AP",
    "EPOCH": "2025-11-11T06:45:39.844224",
    "MEAN_MOTION": 15.06408275,
    "ECCENTRICITY": 0.0001273,
    "INCLINATION": 53.0575,
    "RA_OF_ASC_NODE": 153.1732,
    "ARG_OF_PERICENTER": 95.6575,
    "MEAN_ANOMALY": 264.4559,
    "EPHEMERIS_TYPE": 0,
    "CLASSIFICATION_TYPE": "U",
    "NORAD_CAT_ID": 48390,
    "ELEMENT_SET_NO": 999,
    "REV_AT_EPOCH": 25067,
    "BSTAR": 0.00011882,
    "MEAN_MOTION_DOT": 1.489e-05,
    "MEAN_MOTION_DDOT": 0.0,
    "TLE_LINE1": "1 48390U 21038AP  25315.28171116  .00001489  00000+0  11882-3 0  9995",
    "TLE_LINE2": "2 48390  53.0575 153.1732 0001273  95.6575 264.4559 15.06408275250676",
    "COMMENT": "Grouped by shell and plane from TLE"
  },
  {
    "OBJECT_NAME": "STARLINK-2607",
    "OBJECT_ID": "21038AQ",
    "EPOCH": "2025-11-11T06:40:22.098720",
    "MEAN_MOTION": 15.06398464,
    "ECCENTRICITY": 0.000173,
    "INCLINATION": 53.0547,
    "RA_OF_ASC_NODE": 153.1897,
    "ARG_OF_PERICENTER": 91.8607,
    "MEAN_ANOMALY": 268.258,
    "EPHEMERIS_TYPE": 0,
    "CLASSIFICATION_TYPE": "U",
    "NORAD_CAT_ID": 48391,
    "ELEMENT_SET_NO": 999,
    "REV_AT_EPOCH": 25067,
    "BSTAR": 0.00014034,
    "MEAN_MOTION_DOT": 1.809e-05,
    "MEAN_MOTION_DDOT": 0.0,
    "TLE_LINE1": "1 48391U 21038AQ  25315.27803355  .00001809  00000+0  14034-3 0  9990",
    "TLE_LINE2": "2 48391  53.0547 153.1897 0001730  91.8607 268.2580 15.06398464250674",
    "COMMENT": "Grouped by shell and plane from TLE"
  },
  {
    "OBJECT_NAME": "STARLINK-2605",
    "OBJECT_ID": "21038AR",
    "EPOCH": "2025-11-11T06:35:03.607584",
    "MEAN_MOTION": 15.06405091,
    "ECCENTRICITY": 0.0001296,
    "INCLINATION": 53.0528,
    "RA_OF_ASC_NODE": 153.2037,
    "ARG_OF_PERICENTER": 89.5842,
    "MEAN_ANOMALY": 270.5295,
    "EPHEMERIS_TYPE": 0,
    "CLASSIFICATION_TYPE": "U",
    "NORAD_CAT_ID": 48392,
    "ELEMENT_SET_NO": 999,
    "REV_AT_EPOCH": 25067,
    "BSTAR": 0.0001744,
    "MEAN_MOTION_DOT": 2.318e-05,
    "MEAN_MOTION_DDOT": 0.0,
    "TLE_LINE1": "1 48392U 21038AR  25315.27434731  .00002318  00000+0  17440-3 0  9999",
    "TLE_LINE2": "2 48392  53.0528 153.2037 0001296  89.5842 270.5295 15.06405091250677",
    "COMMENT": "Grouped by shell and plane from TLE"
  },
  {
    "OBJECT_NAME": "STARLINK-2574",
    "OBJECT_ID": "21038AU",
    "EPOCH": "2025-11-10T21:54:59.643648",
    "MEAN_MOTION": 15.06409013,
    "ECCENTRICITY": 0.0001635,
    "INCLINATION": 53.0528,
    "RA_OF_ASC_NODE": 155.4541,
    "ARG_OF_PERICENTER": 89.9834,
    "MEAN_ANOMALY": 270.1343,
    "EPHEMERIS_TYPE": 0,
    "CLASSIFICATION_TYPE": "U",
    "NORAD_CAT_ID": 48395,
    "ELEMENT_SET_NO": 999,
    "REV_AT_EPOCH": 25061,
    "BSTAR": 0.00028470000000000004,
    "MEAN_MOTION_DOT": 3.963e-05,
    "MEAN_MOTION_DDOT": 0.0,
    "TLE_LINE1": "1 48395U 21038AU  25314.91319032  .00003963  00000+0  28470-3 0  9990",
    "TLE_LINE2": "2 48395  53.0528 155.4541 0001635  89.9834 270.1343 15.06409013250618",
    "COMMENT": "Grouped by shell and plane from TLE"
  },
  {
    "OBJECT_NAME": "STARLINK-2575",
    "OBJECT_ID": "21038AV",
    "EPOCH": "2025-11-10T23:56:58.419168",
    "MEAN_MOTION": 15.06401536,
    "ECCENTRICITY": 0.0001262,
    "INCLINATION": 53.0536,
    "RA_OF_ASC_NODE": 154.4459,
    "ARG_OF_PERICENTER": 89.1493,
    "MEAN_ANOMALY": 270.9641,
    "EPHEMERIS_TYPE": 0,
    "CLASSIFICATION_TYPE": "U",
    "NORAD_CAT_ID": 48396,
    "ELEMENT_SET_NO": 999,
    "REV_AT_EPOCH": 25063,
    "BSTAR": 0.0,
    "MEAN_MOTION_DOT": -2.827e-05,
    "MEAN_MOTION_DDOT": 0.0,
    "TLE_LINE1": "1 48396U 21038AV  25314.99789837 -.00002827  00000+0 -17097-3 0  9996",
    "TLE_LINE2": "2 48396  53.0536 154.4459 0001262  89.1493 270.9641 15.06401536250637",
    "COMMENT": "Grouped by shell and plane from TLE"
  },
  {
    "OBJECT_NAME": "STARLINK-2590",
    "OBJECT_ID": "21038AW",
    "EPOCH": "2025-11-11T06:13:50.770560",
    "MEAN_MOTION": 15.06389715,
    "ECCENTRICITY": 0.0001368,
    "INCLINATION": 53.0527,
    "RA_OF_ASC_NODE": 153.2724,
    "ARG_OF_PERICENTER": 90.4199,
    "MEAN_ANOMALY": 269.6947,
    "EPHEMERIS_TYPE": 0,
    "CLASSIFICATION_TYPE": "U",
    "NORAD_CAT_ID": 48397,
    "ELEMENT_SET_NO": 999,
    "REV_AT_EPOCH": 25067,
    "BSTAR": 0.00031568000000000004,
    "MEAN_MOTION_DOT": 4.422e-05,
    "MEAN_MOTION_DDOT": 0.0,
    "TLE_LINE1": "1 48397U 21038AW  25315.25961540  .00004422  00000+0  31568-3 0  9990",
    "TLE_LINE2": "2 48397  53.0527 153.2724 0001368  90.4199 269.6947 15.06389715250677",
    "COMMENT": "Grouped by shell and plane from TLE"
  },
  {
    "OBJECT_NAME": "STARLINK-2588",
    "OBJECT_ID": "21038AX",
    "EPOCH": "2025-11-10T23:46:21.212256",
    "MEAN_MOTION": 15.06397584,
    "ECCENTRICITY": 0.0001469,
    "INCLINATION": 53.0527,
    "RA_OF_ASC_NODE": 154.4788,
    "ARG_OF_PERICENTER": 96.0355,
    "MEAN_ANOMALY": 264.0801,
    "EPHEMERIS_TYPE": 0,
    "CLASSIFICATION_TYPE": "U",
    "NORAD_CAT_ID": 48398,
    "ELEMENT_SET_NO": 999,
    "REV_AT_EPOCH": 25063,
    "BSTAR": 6.0752e-05,
    "MEAN_MOTION_DOT": 6.23e-06,
    "MEAN_MOTION_DDOT": 0.0,
    "TLE_LINE1": "1 48398U 21038AX  25314.99052329  .00000623  00000+0  60752-4 0  9994",
    "TLE_LINE2": "2 48398  53.0527 154.4788 0001469  96.0355 264.0801 15.06397584250636",
    "COMMENT": "Grouped by shell and plane from TLE"
  },
  {
    "OBJECT_NAME": "STARLINK-2587",
    "OBJECT_ID": "21038AY",
    "EPOCH": "2025-11-10T22:05:31.917984",
    "MEAN_MOTION": 15.06394743,
    "ECCENTRICITY": 0.0001374,
    "INCLINATION": 53.0536,
    "RA_OF_ASC_NODE": 154.7943,
    "ARG_OF_PERICENTER": 90.6465,
    "MEAN_ANOMALY": 269.4682,
    "EPHEMERIS_TYPE": 0,
    "CLASSIFICATION_TYPE": "U",
    "NORAD_CAT_ID": 48399,
    "ELEMENT_SET_NO": 999,
    "REV_AT_EPOCH": 25061,
    "BSTAR": 6.326000000000001e-05,
    "MEAN_MOTION_DOT": 6.61e-06,
    "MEAN_MOTION_DDOT": 0.0,
    "TLE_LINE1": "1 48399U 21038AY  25314.92050831  .00000661  00000+0  63260-4 0  9993",
    "TLE_LINE2": "2 48399  53.0536 154.7943 0001374  90.6465 269.4682 15.06394743250618",
    "COMMENT": "Grouped by shell and plane from TLE"
  },
  {
    "OBJECT_NAME": "STARLINK-2576",
    "OBJECT_ID": "21038AZ",
    "EPOCH": "2025-11-10T22:00:12.798720",
    "MEAN_MOTION": 15.06403275,
    "ECCENTRICITY": 0.0001594,
    "INCLINATION": 53.0533,
    "RA_OF_ASC_NODE": 154.8121,
    "ARG_OF_PERICENTER": 89.8853,
    "MEAN_ANOMALY": 270.2318,
    "EPHEMERIS_TYPE": 0,
    "CLASSIFICATION_TYPE": "U",
    "NORAD_CAT_ID": 48400,
    "ELEMENT_SET_NO": 999,
    "REV_AT_EPOCH": 24940,
    "BSTAR": 0.00025508999999999997,
    "MEAN_MOTION_DOT": 3.52e-05,
    "MEAN_MOTION_DDOT": 0.0,
    "TLE_LINE1": "1 48400U 21038AZ  25314.91681480  .00003520  00000+0  25509-3 0  9995",
    "TLE_LINE2": "2 48400  53.0533 154.8121 0001594  89.8853 270.2318 15.06403275249404",
    "COMMENT": "Grouped by shell and plane from TLE"
  }
]